KUIPER-00053            
1 64513U 25134P   25230.51976380  .00034336  00000+0  93973-3 0  9997
2 64513  51.8778  60.2517 0001275 311.3621  48.7256 15.37021665  9861
KUIPER-00054            
1 64514U 25134Q   25230.52685286  .00031480  00000+0  86501-3 0  9997
2 64514  51.8749  60.2936 0002771 299.4615  60.6094 15.36939463  9862
KUIPER-00055            
1 64515U 25134R   25230.24322599  .00027127  00000+0  73245-3 0  9996
2 64515  51.8777  61.4034 0000758 264.7781  95.3120 15.37563231  9826
KUIPER-00056            
1 64516U 25134S   25230.53525583  .00024417  00000+0  67962-3 0  9995
2 64516  51.8720  60.3404 0003471 302.1427  57.9222 15.36676380  9863
KUIPER-00057            
1 64517U 25134T   25230.51038453  .00018394  00000+0  55318-3 0  9998
2 64517  51.8705  60.8959 0007355 314.8815  45.1572 15.34410822  9854
KUIPER-00058            
1 64518U 25134U   25230.54736324  .00027194  00000+0  76469-3 0  9992
2 64518  51.8696  60.4108 0005643 307.7852  52.2623 15.36288056  9867
KUIPER-00059            
1 64519U 25134V   25229.85634239  .00017367  00000+0  47534-3 0  9999
2 64519  51.8787  63.3056 0001435 265.1309  94.9514 15.37429510  9766
KUIPER-00060            
1 64520U 25134W   25230.57842923  .00014783  00000+0  40737-3 0  9990
2 64520  51.8783  59.8975 0002131 266.0546  94.0197 15.37347611  9861
